GUOWANG GROUP 20 OBJECT*
1 68135U 26047G   26076.27690905 -.00000142  00000+0  65176-5 0  9998
2 68135  50.0115  39.5243 0007397 285.3038  74.7050 14.06047252   631
GUOWANG GROUP 20 OBJECT*
1 68136U 26047H   26076.13446074 -.00000142  00000+0  60715-5 0  9994
2 68136  50.0094  40.1007 0007492 290.5420  69.4681 14.06144330   606
GUOWANG GROUP 20 OBJECT*
1 68137U 26047J   26076.27619899 -.00000140  00000+0  73808-5 0  9992
2 68137  50.0071  39.5157 0005850 285.8097  74.2163 14.06272415   631
CZ-8A R/B               
1 68138U 26047K   26076.25815123 -.00000223  00000+0 -36520-4 0  9991
2 68138  49.9544  39.3730 0044740 164.4694 195.7597 14.12227857   621
SHIYAN-30 03            
1 68139U 26048A   26076.00041973  .00002472  00000+0  23697-3 0  9996
2 68139  34.9995 100.2235 0004654 334.6165  25.4311 14.92820153   593
SHIYAN-30 04            
1 68140U 26048B   26076.33586329  .00001929  00000+0  19086-3 0  9996
2 68140  34.9909  98.2290 0002605 277.6095  82.4314 14.91677936   649
CZ-2D R/B               
1 68141U 26048C   26076.32698110  .00001407  00000+0  12713-3 0  9999
2 68141  35.1293  98.3583 0015255  30.7446 329.4153 14.95523730   649
YAOGAN-50 02            
1 68196U 26051A   26075.67053815  .00000272  00000+0  30372-4 0  9998
2 68196 141.9996 239.7951 0148507 128.5083 232.9054 14.16075402   161
CZ-6A R/B               
1 68197U 26051B   26076.32640335  .00000818  00000+0  90587-4 0  9991
2 68197 142.0308 243.7490 0185456 104.6354 257.5022 14.56351638   276
2026-052A               
1 68198U 26052A   26076.07934001  .00000983  00000+0  64669-4 0  9996
2 68198  97.5387 152.3170 0012412 262.4488  97.5331 15.09804425   147
2026-052B               
1 68199U 26052B   26076.07923792  .00000980  00000+0  64201-4 0  9991
2 68199  97.5386 152.3162 0011510 264.1577  95.8340 15.09979416   148
2026-052C               
1 68200U 26052C   26076.07915929  .00000977  00000+0  63794-4 0  9999
2 68200  97.5392 152.3171 0011311 267.0179  92.9756 15.10115575   135
2026-052D               
1 68201U 26052D   26076.07908404  .00000978  00000+0  63610-4 0  9998
2 68201  97.5387 152.3165 0010521 261.8903  98.1133 15.10250444   145
2026-052E               
1 68202U 26052E   26076.07907922  .00000977  00000+0  63550-4 0  9995
2 68202  97.5402 152.3156 0010372 266.6362  93.3681 15.10257311   145
2026-052F               
1 68203U 26052F   26076.07893826  .00000977  00000+0  63164-4 0  9994
2 68203  97.5387 152.3221 0009551 258.7652 101.2505 15.10507241   146
2026-052G               
1 68204U 26052G   26076.07890903  .00000975  00000+0  62952-4 0  9990
2 68204  97.5399 152.3153 0009178 262.1816  97.8372 15.10556930   141
2026-052H               
1 68205U 26052H   26076.10417359  .00012055  16374-5  18350-3 0  9996
2 68205  97.3440 152.5907 0549947  10.0363 351.1306 14.66510094   140
