[{"OBJECT_NAME":"GUOWANG GROUP 20 OBJECT G","OBJECT_ID":"2026-047G","EPOCH":"2026-03-17T06:38:44.941920","MEAN_MOTION":14.06047252,"ECCENTRICITY":0.00073971,"INCLINATION":50.0115,"RA_OF_ASC_NODE":39.5243,"ARG_OF_PERICENTER":285.3038,"MEAN_ANOMALY":74.705,"EPHEMERIS_TYPE":0,"CLASSIFICATION_TYPE":"U","NORAD_CAT_ID":68135,"ELEMENT_SET_NO":999,"REV_AT_EPOCH":63,"BSTAR":6.517649e-6,"MEAN_MOTION_DOT":-1.42e-6,"MEAN_MOTION_DDOT":0},{"OBJECT_NAME":"GUOWANG GROUP 20 OBJECT H","OBJECT_ID":"2026-047H","EPOCH":"2026-03-17T03:13:37.407936","MEAN_MOTION":14.0614433,"ECCENTRICITY":0.00074925,"INCLINATION":50.0094,"RA_OF_ASC_NODE":40.1007,"ARG_OF_PERICENTER":290.542,"MEAN_ANOMALY":69.4681,"EPHEMERIS_TYPE":0,"CLASSIFICATION_TYPE":"U","NORAD_CAT_ID":68136,"ELEMENT_SET_NO":999,"REV_AT_EPOCH":60,"BSTAR":6.071499e-6,"MEAN_MOTION_DOT":-1.42e-6,"MEAN_MOTION_DDOT":0},{"OBJECT_NAME":"GUOWANG GROUP 20 OBJECT J","OBJECT_ID":"2026-047J","EPOCH":"2026-03-17T06:37:43.592736","MEAN_MOTION":14.06272415,"ECCENTRICITY":0.00058502,"INCLINATION":50.0071,"RA_OF_ASC_NODE":39.5157,"ARG_OF_PERICENTER":285.8097,"MEAN_ANOMALY":74.2163,"EPHEMERIS_TYPE":0,"CLASSIFICATION_TYPE":"U","NORAD_CAT_ID":68137,"ELEMENT_SET_NO":999,"REV_AT_EPOCH":63,"BSTAR":7.380751e-6,"MEAN_MOTION_DOT":-1.4e-6,"MEAN_MOTION_DDOT":0},{"OBJECT_NAME":"CZ-8A R/B","OBJECT_ID":"2026-047K","EPOCH":"2026-03-17T06:11:44.266272","MEAN_MOTION":14.12227857,"ECCENTRICITY":0.004474,"INCLINATION":49.9544,"RA_OF_ASC_NODE":39.373,"ARG_OF_PERICENTER":164.4694,"MEAN_ANOMALY":195.7597,"EPHEMERIS_TYPE":0,"CLASSIFICATION_TYPE":"U","NORAD_CAT_ID":68138,"ELEMENT_SET_NO":999,"REV_AT_EPOCH":62,"BSTAR":-3.6519566e-5,"MEAN_MOTION_DOT":-2.23e-6,"MEAN_MOTION_DDOT":0},{"OBJECT_NAME":"SHIYAN-30 03","OBJECT_ID":"2026-048A","EPOCH":"2026-03-17T00:00:36.264672","MEAN_MOTION":14.92820153,"ECCENTRICITY":0.00046544,"INCLINATION":34.9995,"RA_OF_ASC_NODE":100.2235,"ARG_OF_PERICENTER":334.6165,"MEAN_ANOMALY":25.4311,"EPHEMERIS_TYPE":0,"CLASSIFICATION_TYPE":"U","NORAD_CAT_ID":68139,"ELEMENT_SET_NO":999,"REV_AT_EPOCH":59,"BSTAR":0.00023697359,"MEAN_MOTION_DOT":2.472e-5,"MEAN_MOTION_DDOT":0},{"OBJECT_NAME":"SHIYAN-30 04","OBJECT_ID":"2026-048B","EPOCH":"2026-03-17T08:03:38.588256","MEAN_MOTION":14.91677936,"ECCENTRICITY":0.00026056,"INCLINATION":34.9909,"RA_OF_ASC_NODE":98.229,"ARG_OF_PERICENTER":277.6095,"MEAN_ANOMALY":82.4314,"EPHEMERIS_TYPE":0,"CLASSIFICATION_TYPE":"U","NORAD_CAT_ID":68140,"ELEMENT_SET_NO":999,"REV_AT_EPOCH":64,"BSTAR":0.00019085534,"MEAN_MOTION_DOT":1.929e-5,"MEAN_MOTION_DDOT":0},{"OBJECT_NAME":"CZ-2D R/B","OBJECT_ID":"2026-048C","EPOCH":"2026-03-17T07:50:51.167040","MEAN_MOTION":14.9552373,"ECCENTRICITY":0.00152551,"INCLINATION":35.1293,"RA_OF_ASC_NODE":98.3583,"ARG_OF_PERICENTER":30.7446,"MEAN_ANOMALY":329.4153,"EPHEMERIS_TYPE":0,"CLASSIFICATION_TYPE":"U","NORAD_CAT_ID":68141,"ELEMENT_SET_NO":999,"REV_AT_EPOCH":64,"BSTAR":0.00012713024,"MEAN_MOTION_DOT":1.407e-5,"MEAN_MOTION_DDOT":0},{"OBJECT_NAME":"YAOGAN-50 02","OBJECT_ID":"2026-051A","EPOCH":"2026-03-16T16:05:34.496160","MEAN_MOTION":14.16075402,"ECCENTRICITY":0.01485077,"INCLINATION":141.9996,"RA_OF_ASC_NODE":239.7951,"ARG_OF_PERICENTER":128.5083,"MEAN_ANOMALY":232.9054,"EPHEMERIS_TYPE":0,"CLASSIFICATION_TYPE":"U","NORAD_CAT_ID":68196,"ELEMENT_SET_NO":999,"REV_AT_EPOCH":16,"BSTAR":3.0371528e-5,"MEAN_MOTION_DOT":2.72e-6,"MEAN_MOTION_DDOT":0},{"OBJECT_NAME":"CZ-6A R/B","OBJECT_ID":"2026-051B","EPOCH":"2026-03-17T07:50:01.249440","MEAN_MOTION":14.56351638,"ECCENTRICITY":0.01854566,"INCLINATION":142.0308,"RA_OF_ASC_NODE":243.749,"ARG_OF_PERICENTER":104.6354,"MEAN_ANOMALY":257.5022,"EPHEMERIS_TYPE":0,"CLASSIFICATION_TYPE":"U","NORAD_CAT_ID":68197,"ELEMENT_SET_NO":999,"REV_AT_EPOCH":27,"BSTAR":9.0587119e-5,"MEAN_MOTION_DOT":8.18e-6,"MEAN_MOTION_DDOT":0},{"OBJECT_NAME":"2026-052A","OBJECT_ID":"2026-052A","EPOCH":"2026-03-17T01:54:14.976864","MEAN_MOTION":15.09804425,"ECCENTRICITY":0.00124128,"INCLINATION":97.5387,"RA_OF_ASC_NODE":152.317,"ARG_OF_PERICENTER":262.4488,"MEAN_ANOMALY":97.5331,"EPHEMERIS_TYPE":0,"CLASSIFICATION_TYPE":"U","NORAD_CAT_ID":68198,"ELEMENT_SET_NO":999,"REV_AT_EPOCH":14,"BSTAR":6.4669327e-5,"MEAN_MOTION_DOT":9.83e-6,"MEAN_MOTION_DDOT":0},{"OBJECT_NAME":"2026-052B","OBJECT_ID":"2026-052B","EPOCH":"2026-03-17T01:54:06.156288","MEAN_MOTION":15.09979416,"ECCENTRICITY":0.00115109,"INCLINATION":97.5386,"RA_OF_ASC_NODE":152.3162,"ARG_OF_PERICENTER":264.1577,"MEAN_ANOMALY":95.834,"EPHEMERIS_TYPE":0,"CLASSIFICATION_TYPE":"U","NORAD_CAT_ID":68199,"ELEMENT_SET_NO":999,"REV_AT_EPOCH":14,"BSTAR":6.4200761e-5,"MEAN_MOTION_DOT":9.8e-6,"MEAN_MOTION_DDOT":0},{"OBJECT_NAME":"2026-052C","OBJECT_ID":"2026-052C","EPOCH":"2026-03-17T01:53:59.362656","MEAN_MOTION":15.10115575,"ECCENTRICITY":0.00113114,"INCLINATION":97.5392,"RA_OF_ASC_NODE":152.3171,"ARG_OF_PERICENTER":267.0179,"MEAN_ANOMALY":92.9756,"EPHEMERIS_TYPE":0,"CLASSIFICATION_TYPE":"U","NORAD_CAT_ID":68200,"ELEMENT_SET_NO":999,"REV_AT_EPOCH":13,"BSTAR":6.3793595e-5,"MEAN_MOTION_DOT":9.77e-6,"MEAN_MOTION_DDOT":0},{"OBJECT_NAME":"2026-052D","OBJECT_ID":"2026-052D","EPOCH":"2026-03-17T01:53:52.861056","MEAN_MOTION":15.10250444,"ECCENTRICITY":0.00105213,"INCLINATION":97.5387,"RA_OF_ASC_NODE":152.3165,"ARG_OF_PERICENTER":261.8903,"MEAN_ANOMALY":98.1133,"EPHEMERIS_TYPE":0,"CLASSIFICATION_TYPE":"U","NORAD_CAT_ID":68201,"ELEMENT_SET_NO":999,"REV_AT_EPOCH":14,"BSTAR":6.3609557e-5,"MEAN_MOTION_DOT":9.78e-6,"MEAN_MOTION_DDOT":0},{"OBJECT_NAME":"2026-052E","OBJECT_ID":"2026-052E","EPOCH":"2026-03-17T01:53:52.444608","MEAN_MOTION":15.10257311,"ECCENTRICITY":0.00103727,"INCLINATION":97.5402,"RA_OF_ASC_NODE":152.3156,"ARG_OF_PERICENTER":266.6362,"MEAN_ANOMALY":93.3681,"EPHEMERIS_TYPE":0,"CLASSIFICATION_TYPE":"U","NORAD_CAT_ID":68202,"ELEMENT_SET_NO":999,"REV_AT_EPOCH":14,"BSTAR":6.355e-5,"MEAN_MOTION_DOT":9.77e-6,"MEAN_MOTION_DDOT":0},{"OBJECT_NAME":"2026-052F","OBJECT_ID":"2026-052F","EPOCH":"2026-03-17T01:53:40.265664","MEAN_MOTION":15.10507241,"ECCENTRICITY":0.00095513,"INCLINATION":97.5387,"RA_OF_ASC_NODE":152.3221,"ARG_OF_PERICENTER":258.7652,"MEAN_ANOMALY":101.2505,"EPHEMERIS_TYPE":0,"CLASSIFICATION_TYPE":"U","NORAD_CAT_ID":68203,"ELEMENT_SET_NO":999,"REV_AT_EPOCH":14,"BSTAR":6.3163519e-5,"MEAN_MOTION_DOT":9.77e-6,"MEAN_MOTION_DDOT":0},{"OBJECT_NAME":"2026-052G","OBJECT_ID":"2026-052G","EPOCH":"2026-03-17T01:53:37.740192","MEAN_MOTION":15.1055693,"ECCENTRICITY":0.00091783,"INCLINATION":97.5399,"RA_OF_ASC_NODE":152.3153,"ARG_OF_PERICENTER":262.1816,"MEAN_ANOMALY":97.8372,"EPHEMERIS_TYPE":0,"CLASSIFICATION_TYPE":"U","NORAD_CAT_ID":68204,"ELEMENT_SET_NO":999,"REV_AT_EPOCH":14,"BSTAR":6.2951704e-5,"MEAN_MOTION_DOT":9.75e-6,"MEAN_MOTION_DDOT":0},{"OBJECT_NAME":"2026-052H","OBJECT_ID":"2026-052H","EPOCH":"2026-03-17T02:30:00.598176","MEAN_MOTION":14.66510094,"ECCENTRICITY":0.05499475,"INCLINATION":97.344,"RA_OF_ASC_NODE":152.5907,"ARG_OF_PERICENTER":10.0363,"MEAN_ANOMALY":351.1306,"EPHEMERIS_TYPE":0,"CLASSIFICATION_TYPE":"U","NORAD_CAT_ID":68205,"ELEMENT_SET_NO":999,"REV_AT_EPOCH":14,"BSTAR":0.0001835012,"MEAN_MOTION_DOT":0.00012055,"MEAN_MOTION_DDOT":1.637405e-6}]
